JCSAT-12 (JCSAT-RA)     
1 35755U 09044A   26036.43958419  .00000000  00000+0  00000+0 0  9990
2 35755   0.0201  92.8092 0001341 220.3867 112.6890  1.00269873 60286
OPTUS D3                
1 35756U 09044B   26036.44435088 -.00000149  00000+0  00000+0 0  9999
2 35756   0.8648 269.7568 0003500  51.0313 130.8712  1.00268512 60247
NIMIQ 5                 
1 35873U 09050A   26036.47961569 -.00000259  00000+0  00000+0 0  9999
2 35873   0.0628 267.7483 0002499  44.6023 283.2069  1.00270749 60022
AMAZONAS 2              
1 35942U 09054A   26036.47269104 -.00000285  00000+0  00000+0 0  9995
2 35942   1.4740  84.8921 0003407 233.8137 286.2516  1.00272670 59867
COMSATBW-1              
1 35943U 09054B   26036.49875493  .00000023  00000+0  00000+0 0  9991
2 35943   0.0396  87.6504 0003418 243.3136  47.1822  1.00272350 59987
NSS-12                  
1 36032U 09058A   26036.49600449  .00000069  00000+0  00000+0 0  9992
2 36032   0.0875 281.2616 0004954  22.6149  67.3032  1.00273045 59599
THOR 6                  
1 36033U 09058B   26036.34191034  .00000000  00000+0  00000+0 0  9997
2 36033   0.0171 218.3722 0002030 125.8161 273.5563  1.00270903 59681
INTELSAT 14 (IS-14)     
1 36097U 09064A   26036.47581104 -.00000276  00000+0  00000+0 0  9995
2 36097   0.0153  78.6579 0002453 233.2706 309.9459  1.00268508 59288
EUTELSAT 36B            
1 36101U 09065A   26036.49470449  .00000110  00000+0  00000+0 0  9999
2 36101   0.1587  74.3257 0005812 245.1278  44.7335  1.00272229 59383
INTELSAT 15 (IS-15)     
1 36106U 09067A   26036.50163786  .00000000  00000+0  00000+0 0  9999
2 36106   0.0143  99.8390 0001951 238.2508  63.2981  1.00277027 39904
WGS F3 (USA 211)        
1 36108U 09068A   26036.43932419 -.00000224  00000+0  00000+0 0  9990
2 36108   0.2845  86.7731 0000881 295.9479  41.8205  1.00962090 45267
DIRECTV 12              
1 36131U 09075A   26036.46437098 -.00000106  00000+0  00000+0 0  9999
2 36131   0.0034 131.2286 0000392 226.0337 202.7914  1.00271954 45231
BEIDOU-2 G1             
1 36287U 10001A   26036.53239765 -.00000282  00000+0  00000+0 0  9996
2 36287   3.9851  60.7589 0004761 265.4825 141.5524  1.00274065 58852
SDO                     
1 36395U 10005A   26033.15753127 -.00000091  00000+0  00000+0 0  9996
2 36395  34.3665  88.3951 0000722 125.3144 233.1380  1.00276361 58706
INTELSAT 16 (IS-16)     
1 36397U 10006A   26036.46965767  .00000000  00000+0  00000+0 0  9990
2 36397   0.0220  86.9589 0002106 235.2426 266.2968  1.00270602 58338
EWS-G2 (GOES 15)        
1 36411U 10008A   26036.49695784  .00000034  00000+0  00000+0 0  9998
2 36411   0.9458  85.7018 0004834 200.1003  90.3052  1.00275629 58315
ECHOSTAR 14             
1 36499U 10010A   26036.38983723 -.00000002  00000+0  00000+0 0  9994
2 36499   0.0162  94.5235 0001975 225.7607 196.6669  1.00273203 45236
SES-1                   
1 36516U 10016A   26036.46471765 -.00000116  00000+0  00000+0 0  9993
2 36516   0.0667 275.6542 0002801  50.2201 236.0028  1.00271441 57715
ASTRA 3B                
1 36581U 10021A   26036.27543664  .00000134  00000+0  00000+0 0  9997
2 36581   1.1274  85.3532 0002523 250.1662 282.5254  1.00272929 57541
COMSATBW-2              
1 36582U 10021B   26036.27335663  .00000085  00000+0  00000+0 0  9991
2 36582   0.0512 179.5598 0002566 144.2632 283.1457  1.00270232 57637
BEIDOU-2 G3             
1 36590U 10024A   26036.50051119 -.00000138  00000+0  00000+0 0  9990
2 36590   4.2035  62.0393 0006837 312.6057  20.7625  1.00272610 57441
BADR-5                  
1 36592U 10025A   26036.48967780  .00000143  00000+0  00000+0 0  9995
2 36592   0.0399 120.5880 0000366 182.8773  34.4205  1.00276871 51896
COMS 1                  
1 36744U 10032A   26036.54372522 -.00000347  00000+0  00000+0 0  9990
2 36744   4.4705  77.2857 0001116 257.2145 125.0899  1.00270953 49775
ARABSAT-5A              
1 36745U 10032B   26036.49080447  .00000151  00000+0  00000+0 0  9999
2 36745   0.0710  53.2649 0001839 292.7449 356.7779  1.00270689 57326
ECHOSTAR 15             
1 36792U 10034A   26036.38983723  .00000000  00000+0  00000+0 0  9993
2 36792   0.0159 262.1453 0002088  43.3111 211.6145  1.00270331 57007
BEIDOU-2 IGSO-1         
1 36828U 10036A   26036.29164340 -.00000124  00000+0  00000+0 0  9999
2 36828  54.2941 164.1545 0052932 217.3983 325.6573  1.00259833 56771
NILESAT 201             
1 36830U 10037A   26036.41202405 -.00000060  00000+0  00000+0 0  9991
2 36830   0.0262 185.2026 0003137 116.4751 335.1903  1.00270549 57043
RASCOM-QAF 1R           
1 36831U 10037B   26036.34260367  .00000016  00000+0  00000+0 0  9995
2 36831   0.0320 105.9320 0006882 203.9006 311.8637  1.00271561 56982
AEHF-1 (USA 214)        
1 36868U 10039A   26035.70614563  .00000143  00000+0  00000+0 0  9998
2 36868   7.8956  69.7696 0004528 235.1680 114.2122  1.00278718 52324
XM-5                    
1 37185U 10053A   26036.46194431 -.00000026  00000+0  00000+0 0  9999
2 37185   0.0612 270.0271 0002753 253.8919  22.7576  1.00275358 56166
BSAT-3B                 
1 37207U 10056B   26036.51804308 -.00000352  00000+0  00000+0 0  9996
2 37207   0.0534 243.2593 0002875  51.3425 137.3701  1.00270401 50779
BEIDOU-2 G4             
1 37210U 10057A   26036.23114973 -.00000117  00000+0  00000+0 0  9991
2 37210   3.3193  69.7110 0009691 206.6491 102.1165  1.00269856 55969
SKYTERRA 1              
1 37218U 10061A   26036.46471765 -.00000120  00000+0  00000+0 0  9998
2 37218   4.8444  50.9340 0002232 235.4612 275.1659  1.00271966 55872
HYLAS 1                 
1 37237U 10065A   26036.40595735 -.00000210  00000+0  00000+0 0  9991
2 37237   5.3095  74.6593 0001913 318.0937 211.4801  1.00652793  5561
INTELSAT 17 (IS-17)     
1 37238U 10065B   26036.49964601 -.00000003  00000+0  00000+0 0  9993
2 37238   0.0166 171.4493 0002493 152.5933  57.4562  1.00270899 51925
BEIDOU-2 IGSO-2         
1 37256U 10068A   26036.26762377 -.00000180  00000+0  00000+0 0  9993
2 37256  47.7811 273.4680 0047287 214.0947 212.3469  1.00268034 55470
EUTELSAT KA-SAT 9A      
1 37258U 10069A   26036.34390368  .00000057  00000+0  00000+0 0  9994
2 37258   0.0564 335.1719 0002629 193.7515  99.3485  1.00261983 42689
HISPASAT 30W-5          
1 37264U 10070A   26036.40743068 -.00000218  00000+0  00000+0 0  9999
2 37264   0.0205 177.7432 0003011 144.0283 290.4550  1.00272975 51867
KOREASAT 6              
1 37265U 10070B   26036.44504421 -.00000114  00000+0  00000+0 0  9997
2 37265   0.0076 282.8999 0002520  27.1021 145.6391  1.00272392 55451
BEIDOU-2 IGSO-3         
1 37384U 11013A   26036.39174403 -.00000158  00000+0  00000+0 0  9992
2 37384  61.9807  41.4377 0035270 190.0881 150.2641  1.00263613 54334
INTELSAT 28 (IS-28)     
1 37392U 11016A   26036.40708402 -.00000228  00000+0  00000+0 0  9996
2 37392   1.4660  84.3806 0004126 228.6355 297.3479  1.00271369 51967
YAHSAT 1A               
1 37393U 11016B   26035.84905803  .00000097  00000+0  00000+0 0  9991
2 37393   0.0139  95.9580 0003359 229.7576 167.4101  1.00271003 41081
SBIRS GEO-1 (USA 230)   
1 37481U 11019A   26036.49505115  .00000097  00000+0  00000+0 0  9996
2 37481   4.2463  53.0726 0002275 264.4445  48.1290  1.00272247 54077
TELSTAR 14R             
1 37602U 11021A   26036.47225770 -.00000282  00000+0  00000+0 0  9995
2 37602   0.0461 267.3704 0002423  76.8655 258.3673  1.00271264 54510
GSAT-8                  
1 37605U 11022A   26036.49565784  .00000082  00000+0  00000+0 0  9990
2 37605   1.7911  83.5406 0008156 204.2583  81.3210  1.00272030 51895
ST-2                    
1 37606U 11022B   26036.50702205 -.00000212  00000+0  00000+0 0  9990
2 37606   0.0101 154.6115 0002083 180.5671  70.9576  1.00268427 53956
ZHONGXING-10            
1 37677U 11026A   26036.50470132 -.00000190  00000+0  00000+0 0  9998
2 37677   0.7070  85.9771 0003021 226.1603  90.7340  1.00268632 53671
SES-3                   
1 37748U 11035A   26036.51597060 -.00000104  00000+0  00000+0 0  9993
2 37748   0.9867  84.6722 0003384 243.8241 249.8851  1.00271516 53279
KAZSAT-2                
1 37749U 11035B   26036.50470141 -.00000199  00000+0  00000+0 0  9997
2 37749   0.0347 236.8934 0001635 148.2747  18.6384  1.00270352 52073
BEIDOU-2 IGSO-4         
1 37763U 11038A   26033.12497394 -.00000091  00000+0  00000+0 0  9991
2 37763  54.5902 166.8890 0152471 230.5776 234.8329  1.00271568 53291
ASTRA 1N                
1 37775U 11041A   26036.34589702  .00000118  00000+0  00000+0 0  9999
2 37775   0.0658 329.9096 0002924  34.1225 275.1797  1.00276125 43203
BSAT-3C (JCSAT-110R)    
1 37776U 11041B   26036.51804308 -.00000352  00000+0  00000+0 0  9992
2 37776   0.0140  17.0420 0000656  32.4613  22.5938  1.00271405 49144
PAKSAT-1R               
1 37779U 11042A   26036.49227780  .00000152  00000+0  00000+0 0  9993
2 37779   0.3478  86.1173 0001382 271.6500 353.1114  1.00265033 53150
SES-2                   
1 37809U 11049A   26036.46749101 -.00000198  00000+0  00000+0 0  9998
2 37809   0.0108  54.7039 0002942 261.1330 261.0451  1.00272243 52646
ARABSAT-5C              
1 37810U 11049B   26036.34607036  .00000120  00000+0  00000+0 0  9991
2 37810   0.0495   2.6397 0002824 304.2783 333.1609  1.00268925 52712
EUTELSAT 7 WEST A       
1 37816U 11051A   26036.41193737 -.00000063  00000+0  00000+0 0  9993
2 37816   0.0638   0.9569 0003083 245.4370  30.1165  1.00271956 52556
QUETZSAT 1              
1 37826U 11054A   26036.46948435  .00000000  00000+0  00000+0 0  9995
2 37826   0.0136 288.7827 0003001  49.0327 249.8248  1.00272714 48552
INTELSAT 18 (IS-18)     
1 37834U 11056A   26036.44911756  .00000051  00000+0  00000+0 0  9996
2 37834   0.0302 271.6328 0001889  49.2837 156.3305  1.00273453 52498
EUTELSAT 16A            
1 37836U 11057A   26036.34520368  .00000101  00000+0  00000+0 0  9999
2 37836   0.0546   2.3020 0005607 316.1210 317.3107  1.00271543  6004
